OBJECT_NAME,OBJECT_ID,EPOCH,MEAN_MOTION,ECCENTRICITY,INCLINATION,RA_OF_ASC_NODE,ARG_OF_PERICENTER,MEAN_ANOMALY,EPHEMERIS_TYPE,CLASSIFICATION_TYPE,NORAD_CAT_ID,ELEMENT_SET_NO,REV_AT_EPOCH,BSTAR,MEAN_MOTION_DOT,MEAN_MOTION_DDOT
IRIDIUM 154,2018-061F,2026-06-25T04:26:42.453312,14.34217875,.00021686,86.3957,53.4626,89.0984,271.0461,0,U,43574,999,41455,.27297716E-4,.96E-6,0
IRIDIUM 163,2018-061G,2026-06-25T03:59:18.498912,14.34217532,.00022074,86.3955,53.3855,83.6265,276.5182,0,U,43575,999,41452,.23197453E-4,.85E-6,0
IRIDIUM 156,2018-061H,2026-06-25T03:22:46.990560,14.34218178,.00020067,86.3955,53.4034,84.9000,275.2425,0,U,43576,999,41451,.71536587E-4,.22E-5,0
IRIDIUM 164,2018-061J,2026-06-25T04:35:50.471232,14.34218098,.00021866,86.3956,53.4227,89.5683,270.5763,0,U,43577,999,41456,.28713879E-4,.1E-5,0
IRIDIUM 159,2018-061K,2026-06-25T03:50:10.496544,14.34217383,.00021229,86.3949,53.3724,83.6836,276.4602,0,U,43578,999,41452,-.9529337E-5,-.7E-7,0
IRIDIUM 180,2019-002A,2026-06-25T05:29:54.925152,14.34217474,.00021362,86.3970,350.2350,89.2276,270.9165,0,U,43922,999,39014,-.221775E-5,.14E-6,0
IRIDIUM 176,2019-002B,2026-06-24T23:24:15.943392,14.72223286,.00024262,86.6088,350.2836,88.5204,271.6291,0,U,43923,999,40039,.87378036E-4,.575E-5,0
IRIDIUM 168,2019-002C,2026-06-25T05:20:46.378464,14.34217053,.00022308,86.3974,350.3150,90.4401,269.7050,0,U,43924,999,39012,.77253392E-4,.236E-5,0
IRIDIUM 173,2019-002D,2026-06-25T05:02:30.963840,14.34217828,.00021691,86.3971,350.2089,88.4613,271.6831,0,U,43925,999,39010,.17280496E-4,.68E-6,0
IRIDIUM 169,2019-002E,2026-06-25T02:41:20.408064,14.38607104,.00016905,86.4221,21.8794,80.5451,279.5938,0,U,43926,999,39136,.11641332E-3,.376E-5,0
IRIDIUM 172,2019-002F,2026-06-25T04:53:22.765344,14.34217027,.00022529,86.3971,350.2193,90.1004,270.0450,0,U,43927,999,39011,.6414228E-5,.38E-6,0
IRIDIUM 175,2019-002G,2026-06-25T05:55:44.783904,14.43616870,.00035419,86.4515,287.1516,157.3866,202.7492,0,U,43928,999,40014,.82744661E-4,.3E-5,0
IRIDIUM 171,2019-002H,2026-06-25T04:25:58.894752,14.34217541,.00019485,86.3978,350.5346,93.2388,266.9030,0,U,43929,999,39010,-.5535773E-5,.4E-7,0
IRIDIUM 170,2019-002J,2026-06-25T04:26:47.248512,14.72224992,.00025471,86.6091,350.1978,86.2953,273.8556,0,U,43930,999,40043,.14660861E-3,.948E-5,0
IRIDIUM 167,2019-002K,2026-06-25T04:16:50.860416,14.34217680,.00018664,86.3968,350.2526,96.7233,263.4176,0,U,43931,999,39010,-.1527372E-5,.16E-6,0
IRIDIUM 181,2023-068S,2026-06-25T03:34:04.867680,14.43310236,.00024002,86.4492,53.4623,87.9874,272.1602,0,U,56726,999,16358,.73927886E-4,.269E-5,0
IRIDIUM 177,2023-068T,2026-06-25T03:56:41.280288,14.80226431,.00023732,86.1969,325.0021,89.1611,270.9881,0,U,56727,999,16754,.13142911E-3,.1025E-4,0
IRIDIUM 174,2023-068U,2026-06-25T05:46:54.227424,14.72232653,.00024569,86.6100,350.3227,80.5485,279.6009,0,U,56728,999,16720,.15650558E-3,.1011E-4,0
IRIDIUM 178,2023-068V,2026-06-25T00:26:17.676096,14.80245996,.00025596,86.6534,22.0866,84.3530,275.7983,0,U,56729,999,16752,.11635648E-3,.911E-5,0
IRIDIUM 179,2023-068W,2026-06-25T01:55:55.000416,14.80227567,.00024392,86.6769,31.0642,89.7326,270.4175,0,U,56730,999,16753,.5002571E-4,.406E-5,0
