[{"id":"43574","name":"IRIDIUM 154","tle1":"1 43574U 18061F   26176.18521358  .00000096  00000+0  27298-4 0  9990","tle2":"2 43574  86.3957  53.4626 0002168  89.0984 271.0461 14.34217875414556"},{"id":"43575","name":"IRIDIUM 163","tle1":"1 43575U 18061G   26176.16618633  .00000085  00000+0  23197-4 0  9994","tle2":"2 43575  86.3955  53.3855 0002207  83.6265 276.5182 14.34217532414521"},{"id":"43576","name":"IRIDIUM 156","tle1":"1 43576U 18061H   26176.14082165  .00000220  00000+0  71537-4 0  9990","tle2":"2 43576  86.3955  53.4034 0002006  84.9000 275.2425 14.34218178414512"},{"id":"43577","name":"IRIDIUM 164","tle1":"1 43577U 18061J   26176.19155638  .00000100  00000+0  28714-4 0  9998","tle2":"2 43577  86.3956  53.4227 0002186  89.5683 270.5763 14.34218098414564"},{"id":"43578","name":"IRIDIUM 159","tle1":"1 43578U 18061K   26176.15984371 -.00000007  00000+0 -95293-5 0  9994","tle2":"2 43578  86.3949  53.3724 0002122  83.6836 276.4602 14.34217383414522"},{"id":"43922","name":"IRIDIUM 180","tle1":"1 43922U 19002A   26176.22910793  .00000014  00000+0 -22178-5 0  9997","tle2":"2 43922  86.3970 350.2350 0002136  89.2276 270.9165 14.34217474390143"},{"id":"43923","name":"IRIDIUM 176","tle1":"1 43923U 19002B   26175.97518453  .00000575  00000+0  87378-4 0  9999","tle2":"2 43923  86.6088 350.2836 0002426  88.5204 271.6291 14.72223286400398"},{"id":"43924","name":"IRIDIUM 168","tle1":"1 43924U 19002C   26176.22275901  .00000236  00000+0  77253-4 0  9992","tle2":"2 43924  86.3974 350.3150 0002230  90.4401 269.7050 14.34217053390127"},{"id":"43925","name":"IRIDIUM 173","tle1":"1 43925U 19002D   26176.21008060  .00000068  00000+0  17280-4 0  9999","tle2":"2 43925  86.3971 350.2089 0002169  88.4613 271.6831 14.34217828390105"},{"id":"43926","name":"IRIDIUM 169","tle1":"1 43926U 19002E   26176.11204176  .00000376  00000+0  11641-3 0  9991","tle2":"2 43926  86.4221  21.8794 0001690  80.5451 279.5938 14.38607104391368"},{"id":"43927","name":"IRIDIUM 172","tle1":"1 43927U 19002F   26176.20373571  .00000038  00000+0  64142-5 0  9999","tle2":"2 43927  86.3971 350.2193 0002252  90.1004 270.0450 14.34217027390112"},{"id":"43928","name":"IRIDIUM 175","tle1":"1 43928U 19002G   26176.24704611  .00000300  00000+0  82745-4 0  9997","tle2":"2 43928  86.4515 287.1516 0003541 157.3866 202.7492 14.43616870400141"},{"id":"43929","name":"IRIDIUM 171","tle1":"1 43929U 19002H   26176.18470943  .00000004  00000+0 -55358-5 0  9992","tle2":"2 43929  86.3978 350.5346 0001948  93.2388 266.9030 14.34217541390102"},{"id":"43930","name":"IRIDIUM 170","tle1":"1 43930U 19002J   26176.18526908  .00000948  00000+0  14661-3 0  9993","tle2":"2 43930  86.6091 350.1978 0002547  86.2953 273.8556 14.72224992400434"},{"id":"43931","name":"IRIDIUM 167","tle1":"1 43931U 19002K   26176.17836644  .00000016  00000+0 -15274-5 0  9994","tle2":"2 43931  86.3968 350.2526 0001866  96.7233 263.4176 14.34217680390104"},{"id":"56726","name":"IRIDIUM 181","tle1":"1 56726U 23068S   26176.14866745  .00000269  00000+0  73928-4 0  9997","tle2":"2 56726  86.4492  53.4623 0002400  87.9874 272.1602 14.43310236163583"},{"id":"56727","name":"IRIDIUM 177","tle1":"1 56727U 23068T   26176.16436667  .00001025  00000+0  13143-3 0  9999","tle2":"2 56727  86.1969 325.0021 0002373  89.1611 270.9881 14.80226431167541"},{"id":"56728","name":"IRIDIUM 174","tle1":"1 56728U 23068U   26176.24090541  .00001011  00000+0  15651-3 0  9997","tle2":"2 56728  86.6100 350.3227 0002456  80.5485 279.6009 14.72232653167204"},{"id":"56729","name":"IRIDIUM 178","tle1":"1 56729U 23068V   26176.01826014  .00000911  00000+0  11636-3 0  9992","tle2":"2 56729  86.6534  22.0866 0002559  84.3530 275.7983 14.80245996167521"},{"id":"56730","name":"IRIDIUM 179","tle1":"1 56730U 23068W   26176.08049769  .00000406  00000+0  50026-4 0  9991","tle2":"2 56730  86.6769  31.0642 0002439  89.7326 270.4175 14.80227567167534"}]